start=new Date('2022-11-19T00:00:00.000Z').valueOf();
sats=[{"BSTAR":"0.00009511800000","RCS_SIZE":"LARGE","EPHEMERIS_TYPE":"0","MEAN_MOTION_DOT":"0.00001135","FILE":"3662515","PERIOD":"95.593","ELEMENT_SET_NO":"999","CLASSIFICATION_TYPE":"U","APOAPSIS":"548.304","SITE":"AFETR","OBJECT_ID":"2021-044H","PERIAPSIS":"546.175","MEAN_ANOMALY":"284.5963","REF_FRAME":"TEME","TIME_SYSTEM":"UTC","INCLINATION":"53.0533","TLE_LINE2":"2 48645  53.0533 143.7907 0001537  75.5196 284.5963 15.06391619 81667","ARG_OF_PERICENTER":"75.5196","MEAN_MOTION":"15.06391619","DECAY_DATE":null,"OBJECT_TYPE":"PAYLOAD","GP_ID":"218135620","EPOCH":"2022-11-17T20:38:21.227424","MEAN_MOTION_DDOT":"0.0000000000000","MEAN_ELEMENT_THEORY":"SGP4","TLE_LINE1":"1 48645U 21044H   22321.85996791  .00001135  00000-0  95118-4 0  9990","COUNTRY_CODE":"US","LAUNCH_DATE":"2021-05-26","SEMIMAJOR_AXIS":"6925.374","OBJECT_NAME":"STARLINK-2733","NORAD_CAT_ID":"48645","ECCENTRICITY":"0.00015370","CENTER_NAME":"EARTH","REV_AT_EPOCH":"8166","RA_OF_ASC_NODE":"143.7907"},{"PERIOD":"95.592","CLASSIFICATION_TYPE":"U","ELEMENT_SET_NO":"999","FILE":"3662753","SITE":"AFETR","APOAPSIS":"548.259","BSTAR":"0.00017250000000","RCS_SIZE":"LARGE","MEAN_MOTION_DOT":"0.00002289","EPHEMERIS_TYPE":"0","TLE_LINE2":"2 48646  53.0551 140.2316 0001544  91.9361 268.1805 15.06407873 81784","TIME_SYSTEM":"UTC","INCLINATION":"53.0551","ARG_OF_PERICENTER":"91.9361","OBJECT_ID":"2021-044J","REF_FRAME":"TEME","PERIAPSIS":"546.120","MEAN_ANOMALY":"268.1805","MEAN_MOTION_DDOT":"0.0000000000000","DECAY_DATE":null,"MEAN_MOTION":"15.06407873","OBJECT_TYPE":"PAYLOAD","GP_ID":"218164809","EPOCH":"2022-11-18T15:39:31.568544","NORAD_CAT_ID":"48646","SEMIMAJOR_AXIS":"6925.324","ECCENTRICITY":"0.00015440","OBJECT_NAME":"STARLINK-2732","REV_AT_EPOCH":"8178","RA_OF_ASC_NODE":"140.2316","CENTER_NAME":"EARTH","TLE_LINE1":"1 48646U 21044J   22322.65244871  .00002289  00000-0  17250-3 0  9996","COUNTRY_CODE":"US","MEAN_ELEMENT_THEORY":"SGP4","LAUNCH_DATE":"2021-05-26"},{"DECAY_DATE":null,"MEAN_MOTION":"15.06405493","GP_ID":"218165059","OBJECT_TYPE":"PAYLOAD","EPOCH":"2022-11-18T18:45:17.938368","MEAN_MOTION_DDOT":"0.0000000000000","TLE_LINE1":"1 48647U 21044K   22322.78145762  .00002067  00000-0  15757-3 0  9994","COUNTRY_CODE":"US","MEAN_ELEMENT_THEORY":"SGP4","LAUNCH_DATE":"2021-05-26","SEMIMAJOR_AXIS":"6925.332","NORAD_CAT_ID":"48647","ECCENTRICITY":"0.00014400","OBJECT_NAME":"STARLINK-2691","REV_AT_EPOCH":"8180","RA_OF_ASC_NODE":"139.6488","CENTER_NAME":"EARTH","RCS_SIZE":"LARGE","BSTAR":"0.00015757000000","EPHEMERIS_TYPE":"0","MEAN_MOTION_DOT":"0.00002067","PERIOD":"95.592","ELEMENT_SET_NO":"999","CLASSIFICATION_TYPE":"U","FILE":"3662753","SITE":"AFETR","APOAPSIS":"548.194","OBJECT_ID":"2021-044K","REF_FRAME":"TEME","PERIAPSIS":"546.199","MEAN_ANOMALY":"257.7172","TLE_LINE2":"2 48647  53.0540 139.6488 0001440 102.3978 257.7172 15.06405493 81801","TIME_SYSTEM":"UTC","INCLINATION":"53.0540","ARG_OF_PERICENTER":"102.3978"},{"MEAN_MOTION_DOT":"0.00001176","EPHEMERIS_TYPE":"0","BSTAR":"0.00009786900000","RCS_SIZE":"LARGE","APOAPSIS":"548.218","SITE":"AFETR","FILE":"3662753","PERIOD":"95.592","ELEMENT_SET_NO":"999","CLASSIFICATION_TYPE":"U","PERIAPSIS":"546.222","MEAN_ANOMALY":"278.8605","REF_FRAME":"TEME","OBJECT_ID":"2021-044L","ARG_OF_PERICENTER":"81.2547","TIME_SYSTEM":"UTC","INCLINATION":"53.0550","TLE_LINE2":"2 48648  53.0550 139.7465 0001441  81.2547 278.8605 15.06397989 81802","GP_ID":"218165811","OBJECT_TYPE":"PAYLOAD","EPOCH":"2022-11-18T19:06:32.948352","MEAN_MOTION":"15.06397989","DECAY_DATE":null,"MEAN_MOTION_DDOT":"0.0000000000000","LAUNCH_DATE":"2021-05-26","MEAN_ELEMENT_THEORY":"SGP4","TLE_LINE1":"1 48648U 21044L   22322.79621468  .00001176  00000-0  97869-4 0  9993","COUNTRY_CODE":"US","CENTER_NAME":"EARTH","RA_OF_ASC_NODE":"139.7465","REV_AT_EPOCH":"8180","NORAD_CAT_ID":"48648","SEMIMAJOR_AXIS":"6925.355","OBJECT_NAME":"STARLINK-2521","ECCENTRICITY":"0.00014410"},{"MEAN_MOTION_DDOT":"0.0000000000000","GP_ID":"218166551","OBJECT_TYPE":"PAYLOAD","EPOCH":"2022-11-18T18:39:58.198752","MEAN_MOTION":"15.06409941","DECAY_DATE":null,"CENTER_NAME":"EARTH","RA_OF_ASC_NODE":"139.6620","REV_AT_EPOCH":"8179","NORAD_CAT_ID":"48649","SEMIMAJOR_AXIS":"6925.318","OBJECT_NAME":"STARLINK-2673","ECCENTRICITY":"0.00017540","LAUNCH_DATE":"2021-05-26","MEAN_ELEMENT_THEORY":"SGP4","TLE_LINE1":"1 48649U 21044M   22322.77775693  .00001556  00000-0  12330-3 0  9993","COUNTRY_CODE":"US","APOAPSIS":"548.398","SITE":"AFETR","FILE":"3662753","PERIOD":"95.592","ELEMENT_SET_NO":"999","CLASSIFICATION_TYPE":"U","MEAN_MOTION_DOT":"0.00001556","EPHEMERIS_TYPE":"0","BSTAR":"0.00012330000000","RCS_SIZE":"LARGE","ARG_OF_PERICENTER":"74.6225","TIME_SYSTEM":"UTC","INCLINATION":"53.0537","TLE_LINE2":"2 48649  53.0537 139.6620 0001754  74.6225 285.4957 15.06409941 81790","PERIAPSIS":"545.968","MEAN_ANOMALY":"285.4957","REF_FRAME":"TEME","OBJECT_ID":"2021-044M"},{"FILE":"3662753","PERIOD":"95.592","ELEMENT_SET_NO":"999","CLASSIFICATION_TYPE":"U","APOAPSIS":"548.367","SITE":"AFETR","RCS_SIZE":"MEDIUM","BSTAR":"0.00014403000000","MEAN_MOTION_DOT":"0.00001864","EPHEMERIS_TYPE":"0","TIME_SYSTEM":"UTC","INCLINATION":"53.0528","TLE_LINE2":"2 48650  53.0528 139.6794 0001664  82.0030 278.1148 15.06399513 81795","ARG_OF_PERICENTER":"82.0030","OBJECT_ID":"2021-044N","PERIAPSIS":"546.063","MEAN_ANOMALY":"278.1148","REF_FRAME":"TEME","MEAN_MOTION_DDOT":"0.0000000000000","MEAN_MOTION":"15.06399513","DECAY_DATE":null,"GP_ID":"218165310","OBJECT_TYPE":"PAYLOAD","EPOCH":"2022-11-18T18:34:40.861920","NORAD_CAT_ID":"48650","SEMIMAJOR_AXIS":"6925.350","ECCENTRICITY":"0.00016640","OBJECT_NAME":"STARLINK-2672","CENTER_NAME":"EARTH","REV_AT_EPOCH":"8179","RA_OF_ASC_NODE":"139.6794","MEAN_ELEMENT_THEORY":"SGP4","TLE_LINE1":"1 48650U 21044N   22322.77408405  .00001864  00000-0  14403-3 0  9994","COUNTRY_CODE":"US","LAUNCH_DATE":"2021-05-26"},{"MEAN_ELEMENT_THEORY":"SGP4","TLE_LINE1":"1 48651U 21044P   22322.23961599 -.00000709  00000-0 -28731-4 0  9993","COUNTRY_CODE":"US","LAUNCH_DATE":"2021-05-26","NORAD_CAT_ID":"48651","SEMIMAJOR_AXIS":"6925.362","OBJECT_NAME":"STARLINK-2731","ECCENTRICITY":"0.00014590","CENTER_NAME":"EARTH","RA_OF_ASC_NODE":"142.0763","REV_AT_EPOCH":"8171","MEAN_MOTION":"15.06395560","DECAY_DATE":null,"GP_ID":"218135119","OBJECT_TYPE":"PAYLOAD","EPOCH":"2022-11-18T05:45:02.821536","MEAN_MOTION_DDOT":"0.0000000000000","OBJECT_ID":"2021-044P","PERIAPSIS":"546.217","MEAN_ANOMALY":"284.4611","REF_FRAME":"TEME","TIME_SYSTEM":"UTC","INCLINATION":"53.0533","TLE_LINE2":"2 48651  53.0533 142.0763 0001459  75.6539 284.4611 15.06395560 81715","ARG_OF_PERICENTER":"75.6539","RCS_SIZE":"LARGE","BSTAR":"-0.00002873100000","MEAN_MOTION_DOT":"-0.00000709","EPHEMERIS_TYPE":"0","FILE":"3662515","PERIOD":"95.592","ELEMENT_SET_NO":"999","CLASSIFICATION_TYPE":"U","APOAPSIS":"548.238","SITE":"AFETR"},{"ELEMENT_SET_NO":"999","CLASSIFICATION_TYPE":"U","PERIOD":"95.592","FILE":"3662753","SITE":"AFETR","APOAPSIS":"548.159","RCS_SIZE":"LARGE","BSTAR":"0.00016388000000","MEAN_MOTION_DOT":"0.00002160","EPHEMERIS_TYPE":"0","TLE_LINE2":"2 48652  53.0531 139.7161 0001363  68.9819 291.1316 15.06399371 81798","INCLINATION":"53.0531","TIME_SYSTEM":"UTC","ARG_OF_PERICENTER":"68.9819","OBJECT_ID":"2021-044Q","REF_FRAME":"TEME","MEAN_ANOMALY":"291.1316","PERIAPSIS":"546.272","MEAN_MOTION_DDOT":"0.0000000000000","DECAY_DATE":null,"MEAN_MOTION":"15.06399371","EPOCH":"2022-11-18T18:24:03.599712","GP_ID":"218166312","OBJECT_TYPE":"PAYLOAD","SEMIMAJOR_AXIS":"6925.350","NORAD_CAT_ID":"48652","ECCENTRICITY":"0.00013630","OBJECT_NAME":"STARLINK-2727","RA_OF_ASC_NODE":"139.7161","REV_AT_EPOCH":"8179","CENTER_NAME":"EARTH","COUNTRY_CODE":"US","TLE_LINE1":"1 48652U 21044Q   22322.76670833  .00002160  00000-0  16388-3 0  9995","MEAN_ELEMENT_THEORY":"SGP4","LAUNCH_DATE":"2021-05-26"},{"SITE":"AFETR","APOAPSIS":"548.094","ELEMENT_SET_NO":"999","CLASSIFICATION_TYPE":"U","PERIOD":"95.592","FILE":"3662753","MEAN_MOTION_DOT":"0.00001118","EPHEMERIS_TYPE":"0","BSTAR":"0.00009394700000","RCS_SIZE":"LARGE","ARG_OF_PERICENTER":"69.6111","TLE_LINE2":"2 48653  53.0545 139.7336 0001281  69.6111 290.5015 15.06402313 81790","INCLINATION":"53.0545","TIME_SYSTEM":"UTC","REF_FRAME":"TEME","MEAN_ANOMALY":"290.5015","PERIAPSIS":"546.319","OBJECT_ID":"2021-044R","MEAN_MOTION_DDOT":"0.0000000000000","EPOCH":"2022-11-18T18:18:44.656704","GP_ID":"218166051","OBJECT_TYPE":"PAYLOAD","DECAY_DATE":null,"MEAN_MOTION":"15.06402313","RA_OF_ASC_NODE":"139.7336","REV_AT_EPOCH":"8179","CENTER_NAME":"EARTH","SEMIMAJOR_AXIS":"6925.341","NORAD_CAT_ID":"48653","ECCENTRICITY":"0.00012810","OBJECT_NAME":"STARLINK-2720","LAUNCH_DATE":"2021-05-26","COUNTRY_CODE":"US","TLE_LINE1":"1 48653U 21044R   22322.76301686  .00001118  00000-0  93947-4 0  9992","MEAN_ELEMENT_THEORY":"SGP4"},{"RCS_SIZE":"LARGE","BSTAR":"-0.00002620400000","EPHEMERIS_TYPE":"0","MEAN_MOTION_DOT":"-0.00000672","PERIOD":"95.593","CLASSIFICATION_TYPE":"U","ELEMENT_SET_NO":"999","FILE":"3662515","SITE":"AFETR","APOAPSIS":"548.148","OBJECT_ID":"2021-044S","REF_FRAME":"TEME","PERIAPSIS":"546.364","MEAN_ANOMALY":"265.0878","TLE_LINE2":"2 48654  53.0534 140.9400 0001288  95.0258 265.0878 15.06386294 81756","TIME_SYSTEM":"UTC","INCLINATION":"53.0534","ARG_OF_PERICENTER":"95.0258","DECAY_DATE":null,"MEAN_MOTION":"15.06386294","OBJECT_TYPE":"PAYLOAD","GP_ID":"218134369","EPOCH":"2022-11-18T11:51:18.464544","MEAN_MOTION_DDOT":"0.0000000000000","TLE_LINE1":"1 48654U 21044S   22322.49396371 -.00000672  00000-0 -26204-4 0  9996","COUNTRY_CODE":"US","MEAN_ELEMENT_THEORY":"SGP4","LAUNCH_DATE":"2021-05-26","SEMIMAJOR_AXIS":"6925.391","NORAD_CAT_ID":"48654","ECCENTRICITY":"0.00012880","OBJECT_NAME":"STARLINK-2651","REV_AT_EPOCH":"8175","RA_OF_ASC_NODE":"140.9400","CENTER_NAME":"EARTH"}];
